KUIPER-00538            
1 69608U 26140S   26176.58335648  .00007790  00000+0  22031-3 0  9999
2 69608  51.8819 358.1648 0005307 256.2271 136.7652 15.37274173  2448
KUIPER-00540            
1 69609U 26140T   26176.58335648  .00006190  00000+0  18079-3 0  9990
2 69609  51.8823 358.2053 0005256 310.8866  63.0575 15.36656932  1930
KUIPER-00541            
1 69610U 26140U   26176.58335648  .00008063  00000+0  22334-3 0  9992
2 69610  51.8831 358.1368 0007211 238.6284 168.7349 15.37867720  2442
KUIPER-00542            
1 69611U 26140V   26176.58335648  .00010204  00000+0  27754-3 0  9994
2 69611  51.8799 358.1177 0007780 222.9877 191.6554 15.38114266  1543
KUIPER-00543            
1 69612U 26140W   26176.58335648  .00006172  00000+0  18197-3 0  9995
2 69612  51.8792 358.2175 0006442 329.1839  35.4103 15.36360079  1782
KUIPER-00544            
1 69613U 26140X   26176.58335648  .00009183  00000+0  25400-3 0  9996
2 69613  51.8798 358.1406 0006659 238.7458 164.6578 15.37731079  2041
KUIPER-00546            
1 69614U 26140Y   26176.58335648 -.01832063  00000+0 -49963-1 0  9999
2 69614  51.8802 357.9956 0015019 191.0405 284.1030 15.39942340  2473
KUIPER-00547            
1 69615U 26140Z   26176.58335648  .00008990  00000+0  23830-3 0  9998
2 69615  51.8834 358.0648 0011770 209.4422 232.6353 15.39044937  1304
KUIPER-00549            
1 69616U 26140AA  26176.58335648  .00006120  00000+0  17759-3 0  9995
2 69616  51.8799 358.1886 0006017 302.9889  76.6943 15.36880108  2389
KUIPER-00550            
1 69617U 26140AB  26176.58335648  .00007733  00000+0  23220-3 0  9997
2 69617  51.8800 358.2591 0006331 352.8316 352.2073 15.35392263  1762
KUIPER-00551            
1 69618U 26140AC  26176.58335648  .00010581  00000+0  27405-3 0  9992
2 69618  51.8800 358.0319 0013645 201.3185 255.8173 15.39529837  1309
KUIPER-00554            
1 69619U 26140AD  26176.58335648  .00008877  00000+0  23445-3 0  9998
2 69619  51.8800 358.0562 0012016 209.7369 235.3713 15.39175029  2198
KUIPER-00555            
1 69620U 26140AE  26176.58335648  .00010231  00000+0  26662-3 0  9991
2 69620  51.8832 358.0452 0012683 202.6961 248.7131 15.39395168  1990
KUIPER-00556            
1 69621U 26140AF  26176.58335648 -.01944885  00000+0 -54473-1 0  9995
2 69621  51.8820 358.0328 0012809 194.7630 262.2926 15.39388446  2191
KUIPER-00557            
1 69622U 26140AG  26176.58335648  .00009100  00000+0  24313-3 0  9997
2 69622  51.8822 358.0808 0011049 216.5782 217.4070 15.38792008  1354
KUIPER-00560            
1 69623U 26140AH  26176.58335648  .00009318  00000+0  25209-3 0  9994
2 69623  51.8798 358.1020 0008986 224.6626 197.8113 15.38386899  2107
KUIPER-00561            
1 69624U 26140AJ  26176.58335648  .00008721  00000+0  23764-3 0  9996
2 69624  51.8832 358.1134 0008386 224.0069 194.6141 15.38257414  2311
KUIPER-00564            
1 69625U 26140AK  26176.58335648  .00009112  00000+0  24565-3 0  9992
2 69625  51.8822 358.0947 0009805 215.8681 211.3191 15.38523080  1773
KUIPER-00567            
1 69626U 26140AL  26176.58335648 -.01942770  00000+0 -53995-1 0  9999
2 69626  51.8791 358.0218 0013480 197.2516 264.8211 15.39603003  2507
KUIPER-00573            
1 69627U 26140AM  26176.58335648 -.01933872  00000+0 -55354-1 0  9994
2 69627  51.8799 358.0702 0010421 209.2587 228.9314 15.38759747  2442
CENTISPACE-1 GROUP 05 O*
1 69636U 26138J   26176.61329958 -.00000283  00000+0 -65288-4 0  9992
2 69636  55.1419 250.0266 0008323 297.0538  62.9587 14.15865616  1188
VICTUS HAZE PUMA        
1 69646U 26142A   26176.63786164  .00004341  00000+0  19951-3 0  9998
2 69646  97.4480  74.1659 0021135 297.4953  62.4134 15.20709621   955
