OBJECT_NAME,OBJECT_ID,EPOCH,MEAN_MOTION,ECCENTRICITY,INCLINATION,RA_OF_ASC_NODE,ARG_OF_PERICENTER,MEAN_ANOMALY,EPHEMERIS_TYPE,CLASSIFICATION_TYPE,NORAD_CAT_ID,ELEMENT_SET_NO,REV_AT_EPOCH,BSTAR,MEAN_MOTION_DOT,MEAN_MOTION_DDOT
KUIPER-00538,2026-140S,2026-06-25T14:00:01.999872,15.37274173,.00053078,51.8819,358.1648,256.2271,136.7652,0,U,69608,999,244,.22031304E-3,.779E-4,0
KUIPER-00540,2026-140T,2026-06-25T14:00:01.999872,15.36656932,.00052565,51.8823,358.2053,310.8866,63.0575,0,U,69609,999,193,.18078888E-3,.619E-4,0
KUIPER-00541,2026-140U,2026-06-25T14:00:01.999872,15.37867720,.00072118,51.8831,358.1368,238.6284,168.7349,0,U,69610,999,244,.22333584E-3,.8063E-4,0
KUIPER-00542,2026-140V,2026-06-25T14:00:01.999872,15.38114266,.00077801,51.8799,358.1177,222.9877,191.6554,0,U,69611,999,154,.27753851E-3,.10204E-3,0
KUIPER-00543,2026-140W,2026-06-25T14:00:01.999872,15.36360079,.00064423,51.8792,358.2175,329.1839,35.4103,0,U,69612,999,178,.1819651E-3,.6172E-4,0
KUIPER-00544,2026-140X,2026-06-25T14:00:01.999872,15.37731079,.00066597,51.8798,358.1406,238.7458,164.6578,0,U,69613,999,204,.25399859E-3,.9183E-4,0
KUIPER-00546,2026-140Y,2026-06-25T14:00:01.999872,15.39942340,.0015019,51.8802,357.9956,191.0405,284.1030,0,U,69614,999,247,-.49963151E-1,-.1832063E-1,0
KUIPER-00547,2026-140Z,2026-06-25T14:00:01.999872,15.39044937,.00117705,51.8834,358.0648,209.4422,232.6353,0,U,69615,999,130,.23829692E-3,.899E-4,0
KUIPER-00549,2026-140AA,2026-06-25T14:00:01.999872,15.36880108,.00060173,51.8799,358.1886,302.9889,76.6943,0,U,69616,999,238,.17759238E-3,.612E-4,0
KUIPER-00550,2026-140AB,2026-06-25T14:00:01.999872,15.35392263,.00063318,51.8800,358.2591,352.8316,352.2073,0,U,69617,999,176,.23220256E-3,.7733E-4,0
KUIPER-00551,2026-140AC,2026-06-25T14:00:01.999872,15.39529837,.00136457,51.8800,358.0319,201.3185,255.8173,0,U,69618,999,130,.27405246E-3,.10581E-3,0
KUIPER-00554,2026-140AD,2026-06-25T14:00:01.999872,15.39175029,.00120162,51.8800,358.0562,209.7369,235.3713,0,U,69619,999,219,.23444522E-3,.8877E-4,0
KUIPER-00555,2026-140AE,2026-06-25T14:00:01.999872,15.39395168,.0012683,51.8832,358.0452,202.6961,248.7131,0,U,69620,999,199,.26662059E-3,.10231E-3,0
KUIPER-00556,2026-140AF,2026-06-25T14:00:01.999872,15.39388446,.0012809,51.8820,358.0328,194.7630,262.2926,0,U,69621,999,219,-.54473126E-1,-.1944885E-1,0
KUIPER-00557,2026-140AG,2026-06-25T14:00:01.999872,15.38792008,.00110492,51.8822,358.0808,216.5782,217.4070,0,U,69622,999,135,.24312718E-3,.91E-4,0
KUIPER-00560,2026-140AH,2026-06-25T14:00:01.999872,15.38386899,.00089866,51.8798,358.1020,224.6626,197.8113,0,U,69623,999,210,.25209187E-3,.9318E-4,0
KUIPER-00561,2026-140AJ,2026-06-25T14:00:01.999872,15.38257414,.00083867,51.8832,358.1134,224.0069,194.6141,0,U,69624,999,231,.23764083E-3,.8721E-4,0
KUIPER-00564,2026-140AK,2026-06-25T14:00:01.999872,15.38523080,.00098058,51.8822,358.0947,215.8681,211.3191,0,U,69625,999,177,.2456478E-3,.9112E-4,0
KUIPER-00567,2026-140AL,2026-06-25T14:00:01.999872,15.39603003,.00134803,51.8791,358.0218,197.2516,264.8211,0,U,69626,999,250,-.53994733E-1,-.194277E-1,0
KUIPER-00573,2026-140AM,2026-06-25T14:00:01.999872,15.38759747,.00104213,51.8799,358.0702,209.2587,228.9314,0,U,69627,999,244,-.55354024E-1,-.1933872E-1,0
CENTISPACE-1 GROUP 05 OBJECT J,2026-138J,2026-06-25T14:43:09.083712,14.15865616,.00083231,55.1419,250.0266,297.0538,62.9587,0,U,69636,999,118,-.6528773E-4,-.283E-5,0
VICTUS HAZE PUMA,2026-142A,2026-06-25T15:18:31.245696,15.20709621,.00211354,97.4480,74.1659,297.4953,62.4134,0,U,69646,999,95,.19951417E-3,.4341E-4,0
